NORAD_CAT_ID,OBJECT_NAME,OBJECT_TYPE,EPOCH,MEAN_MOTION,ECCENTRICITY,INCLINATION,RA_OF_ASC_NODE,ARG_OF_PERICENTER,MEAN_ANOMALY,BSTAR,MEAN_MOTION_DOT,MEAN_MOTION_DDOT,TLE_LINE0,TLE_LINE1,TLE_LINE2,SEMIMAJOR_AXIS,PERIOD,APOGEE,PERIGEE,DECAYED
56800.0,STARLINK-6036,PAYLOAD,2024-07-06 11:11:47,14.98329902,0.0002852,70.0001,85.6184,271.1364,88.9468,-1.3617e-05,-2.55e-06,0.0,0 STARLINK-6036,1 56800U 23078AK  24188.46651677 -.00000255  00000-0 -13617-4 0  9990,2 56800  70.0001  85.6184 0002852 271.1364  88.9468 14.98329902 61122,6950.193,96.107,574.04,570.076,0.0
56800.0,STARLINK-6036,PAYLOAD,2024-07-06 20:48:35,14.98329594,0.0002811,70.0001,84.6084,269.4598,90.6239,-1.9905e-06,-1.17e-06,0.0,0 STARLINK-6036,1 56800U 23078AK  24188.86707694 -.00000117  00000-0 -19905-5 0  9999,2 56800  70.0001  84.6084 0002811 269.4598  90.6239 14.98329594 61442,6950.194,96.107,574.013,570.105,0.0
56800.0,STARLINK-6036,PAYLOAD,2024-07-06 22:24:43,14.98329204,0.0002816,70.0001,84.4401,269.4748,90.6088,-5.7203e-06,-1.61e-06,0.0,0 STARLINK-6036,1 56800U 23078AK  24188.93383730 -.00000161  00000-0 -57203-5 0  9990,2 56800  70.0001  84.4401 0002816 269.4748  90.6088 14.98329204 61197,6950.195,96.107,574.018,570.103,0.0
56800.0,STARLINK-6036,PAYLOAD,2024-07-07 03:13:07,14.98332807,0.0002969,69.9999,83.9357,269.7413,90.3406,-9.9708e-06,-2.12e-06,0.0,0 STARLINK-6036,1 56800U 23078AK  24189.13411478 -.00000212  00000-0 -99708-5 0  9997,2 56800  69.9999  83.9357 0002969 269.7413  90.3406 14.98332807 61223,6950.184,96.107,574.113,569.986,0.0
56800.0,STARLINK-6036,PAYLOAD,2024-07-07 20:50:36,14.98330499,0.0002929,70.0,82.0841,270.5187,89.5636,5.1989e-05,5.27e-06,0.0,0 STARLINK-6036,1 56800U 23078AK  24189.86847401  .00000527  00000-0  51989-4 0  9991,2 56800  70.0000  82.0841 0002929 270.5187  89.5636 14.98330499 61591,6950.191,96.107,574.092,570.021,0.0
56800.0,STARLINK-6036,PAYLOAD,2024-07-08 01:38:59,14.98335485,0.0002925,69.9999,81.5792,270.561,89.5214,7.4666e-05,7.98e-06,0.0,0 STARLINK-6036,1 56800U 23078AK  24190.06874985  .00000798  00000-0  74666-4 0  9999,2 56800  69.9999  81.5792 0002925 270.5610  89.5214 14.98335485 61368,6950.176,96.107,574.074,570.008,0.0
56800.0,STARLINK-6036,PAYLOAD,2024-07-08 20:52:37,14.98327671,0.0002822,70.0004,79.5594,273.05,87.0337,6.0906e-07,-8.6e-07,0.0,0 STARLINK-6036,1 56800U 23078AK  24190.86987592 -.00000086  00000-0  60906-6 0  9991,2 56800  70.0004  79.5594 0002822 273.0500  87.0337 14.98327671 61746,6950.2,96.107,574.026,570.104,0.0
56800.0,STARLINK-6036,PAYLOAD,2024-07-08 22:28:45,14.9833175,0.0002829,70.0003,79.3912,271.9931,88.0904,3.4528e-05,3.19e-06,0.0,0 STARLINK-6036,1 56800U 23078AK  24190.93663229  .00000319  00000-0  34528-4 0  9994,2 56800  70.0003  79.3912 0002829 271.9931  88.0904 14.98331750 61495,6950.187,96.107,574.019,570.086,0.0
56800.0,STARLINK-6036,PAYLOAD,2024-07-09 01:41:01,14.98330249,0.0002736,70.0006,79.0554,269.9727,90.1119,3.3381e-05,3.05e-06,0.0,0 STARLINK-6036,1 56800U 23078AK  24191.07015329  .00000305  00000-0  33381-4 0  9993,2 56800  70.0006  79.0554 0002736 269.9727  90.1119 14.98330249 61511,6950.192,96.107,573.959,570.156,0.0
56800.0,STARLINK-6036,PAYLOAD,2024-07-09 20:54:38,14.98329755,0.0002657,70.0005,77.0342,263.3368,96.7489,-3.7015e-05,-5.35e-06,0.0,0 STARLINK-6036,1 56800U 23078AK  24191.87127443 -.00000535  00000-0 -37015-4 0  9997,2 56800  70.0005  77.0342 0002657 263.3368  96.7489 14.98329755 61897,6950.194,96.107,573.905,570.212,0.0
56800.0,STARLINK-6036,PAYLOAD,2024-07-09 22:30:46,14.98329196,0.0002671,70.0005,76.8659,263.5513,96.5342,-4.331e-05,-6.1e-06,0.0,0 STARLINK-6036,1 56800U 23078AK  24191.93803497 -.00000610  00000-0 -43310-4 0  9993,2 56800  70.0005  76.8659 0002671 263.5513  96.5342 14.98329196 61643,6950.195,96.107,573.917,570.204,0.0
56800.0,STARLINK-6036,PAYLOAD,2024-07-10 09:43:42,14.98331167,0.000283,70.0003,75.6879,270.1701,89.9134,-3.6573e-05,-5.29e-06,0.0,0 STARLINK-6036,1 56800U 23078AK  24192.40535354 -.00000529  00000-0 -36573-4 0  9992,2 56800  70.0003  75.6879 0002830 270.1701  89.9134 14.98331167 61716,6950.189,96.107,574.021,570.087,0.0
56800.0,STARLINK-6036,PAYLOAD,2024-07-10 20:56:39,14.98328127,0.0002927,70.0,74.5093,269.9329,90.1495,-1.8047e-05,-3.08e-06,0.0,0 STARLINK-6036,1 56800U 23078AK  24192.87267516 -.00000308  00000-0 -18047-4 0  9996,2 56800  70.0000  74.5093 0002927 269.9329  90.1495 14.98328127 62041,6950.199,96.107,574.098,570.029,0.0
56800.0,STARLINK-6036,PAYLOAD,2024-07-10 22:32:47,14.98328455,0.0002923,70.0,74.341,269.9541,90.1283,-1.3834e-05,-2.58e-06,0.0,0 STARLINK-6036,1 56800U 23078AK  24192.93943489 -.00000258  00000-0 -13834-4 0  9996,2 56800  70.0000  74.3410 0002923 269.9541  90.1283 14.98328455 61794,6950.198,96.107,574.094,570.031,0.0
56800.0,STARLINK-6036,PAYLOAD,2024-07-11 01:45:03,14.98331833,0.0002892,70.0001,74.0045,270.1842,89.8985,2.3661e-05,1.89e-06,0.0,0 STARLINK-6036,1 56800U 23078AK  24193.07295158  .00000189  00000-0  23661-4 0  9995,2 56800  70.0001  74.0045 0002892 270.1842  89.8985 14.98331833 61810,6950.187,96.107,574.062,570.042,0.0
56800.0,STARLINK-6036,PAYLOAD,2024-07-12 01:47:03,14.98332262,0.0002858,70.0002,71.4793,270.1769,89.9063,7.5884e-05,8.13e-06,0.0,0 STARLINK-6036,1 56800U 23078AK  24194.07434930  .00000813  00000-0  75884-4 0  9997,2 56800  70.0002  71.4793 0002858 270.1769  89.9063 14.98332262 62223,6950.186,96.107,574.037,570.065,0.0
56800.0,STARLINK-6036,PAYLOAD,2024-07-12 14:36:08,14.98331346,0.000278,70.0005,70.1318,270.2477,89.8364,1.8718e-05,1.3e-06,0.0,0 STARLINK-6036,1 56800U 23078AK  24194.60843123  .00000130  00000-0  18718-4 0  9999,2 56800  70.0005  70.1318 0002780 270.2477  89.8364 14.98331346 62041,6950.189,96.107,573.986,570.122,0.0
56800.0,STARLINK-6036,PAYLOAD,2024-07-12 22:36:48,14.98331272,0.0002932,70.0001,69.2913,272.6921,87.3903,1.4282e-05,7.7e-07,0.0,0 STARLINK-6036,1 56800U 23078AK  24194.94223110  .00000077  00000-0  14282-4 0  9996,2 56800  70.0001  69.2913 0002932 272.6921  87.3903 14.98331272 62091,6950.189,96.107,574.092,570.016,0.0
56800.0,STARLINK-6036,PAYLOAD,2024-07-13 01:49:04,14.98332283,0.0002949,70.0001,68.9546,272.7597,87.3225,2.2693e-05,1.78e-06,0.0,0 STARLINK-6036,1 56800U 23078AK  24195.07575010  .00000178  00000-0  22693-4 0  9997,2 56800  70.0001  68.9546 0002949 272.7597  87.3225 14.98332283 62378,6950.186,96.107,574.1,570.001,0.0
56800.0,STARLINK-6036,PAYLOAD,2024-07-13 22:38:49,14.98331982,0.0003037,69.9999,66.7664,271.3396,88.7415,1.1739e-06,-7.9e-07,0.0,0 STARLINK-6036,1 56800U 23078AK  24195.94363045 -.00000079  00000-0  11739-5 0  9997,2 56800  69.9999  66.7664 0003037 271.3396  88.7415 14.98331982 62246,6950.187,96.107,574.163,569.941,0.0
56800.0,STARLINK-6036,PAYLOAD,2024-07-14 01:51:05,14.98335828,0.000304,69.9999,66.4298,271.3393,88.7418,4.2581e-05,4.15e-06,0.0,0 STARLINK-6036,1 56800U 23078AK  24196.07714654  .00000415  00000-0  42581-4 0  9999,2 56800  69.9999  66.4298 0003040 271.3393  88.7418 14.98335828 62524,6950.175,96.107,574.153,569.927,0.0
56800.0,STARLINK-6036,PAYLOAD,2024-07-14 08:15:37,14.98332537,0.0003041,70.0001,65.7564,271.0518,89.0292,1.3474e-05,6.8e-07,0.0,0 STARLINK-6036,1 56800U 23078AK  24196.34418852  .00000068  00000-0  13474-4 0  9993,2 56800  70.0001  65.7564 0003041 271.0518  89.0292 14.98332537 62300,6950.185,96.107,574.164,569.936,0.0
56800.0,STARLINK-6036,PAYLOAD,2024-07-14 22:40:50,14.9833391,0.0002971,70.0,64.2419,269.4261,90.6558,6.754e-05,7.13e-06,0.0,0 STARLINK-6036,1 56800U 23078AK  24196.94502582  .00000713  00000-0  67540-4 0  9993,2 56800  70.0000  64.2419 0002971 269.4261  90.6558 14.98333910 62397,6950.181,96.107,574.111,569.981,0.0
56800.0,STARLINK-6036,PAYLOAD,2024-07-15 08:17:38,14.98339756,0.0002975,70.0002,63.2317,269.2138,90.868,-8.6791e-05,-1.129e-05,0.0,0 STARLINK-6036,1 56800U 23078AK  24197.34558467 -.00001129  00000-0 -86791-4 0  9994,2 56800  70.0002  63.2317 0002975 269.2138  90.8680 14.98339756 62718,6950.163,96.106,574.095,569.96,0.0
56800.0,STARLINK-6036,PAYLOAD,2024-07-15 17:54:27,14.98319967,0.0002735,70.0005,62.2222,269.2377,90.8469,6.2642e-05,6.54e-06,0.0,0 STARLINK-6036,1 56800U 23078AK  24197.74615407  .00000654  00000-0  62642-4 0  9995,2 56800  70.0005  62.2222 0002735 269.2377  90.8469 14.98319967 62777,6950.224,96.108,573.99,570.188,0.0
56800.0,STARLINK-6036,PAYLOAD,2024-07-15 22:42:52,14.98308354,0.0002783,70.0005,61.7171,267.3652,92.7189,0.00030502,3.546e-05,0.0,0 STARLINK-6036,1 56800U 23078AK  24197.94643574  .00003546  00000-0  30502-3 0  9995,2 56800  70.0005  61.7171 0002783 267.3652  92.7189 14.98308354 62545,6950.26,96.108,574.059,570.191,0.0
56800.0,STARLINK-6036,PAYLOAD,2024-07-16 00:18:59,14.9832477,0.0002769,70.0007,61.5485,269.5805,90.5037,6.0037e-05,6.23e-06,0.0,0 STARLINK-6036,1 56800U 23078AK  24198.01319197  .00000623  00000-0  60037-4 0  9995,2 56800  70.0007  61.5485 0002769 269.5805  90.5037 14.98324770 62550,6950.209,96.107,573.999,570.15,0.0
56800.0,STARLINK-6036,PAYLOAD,2024-07-16 21:08:44,14.98330116,0.0002801,70.0005,59.3607,270.8841,89.1998,2.2045e-05,1.7e-06,0.0,0 STARLINK-6036,1 56800U 23078AK  24198.88106894  .00000170  00000-0  22045-4 0  9992,2 56800  70.0005  59.3607 0002801 270.8841  89.1998 14.98330116 62686,6950.193,96.107,574.004,570.111,0.0
56800.0,STARLINK-6036,PAYLOAD,2024-07-17 14:46:13,14.98321738,0.0003017,70.0002,57.5072,271.2982,88.7832,2.4604e-05,2.01e-06,0.0,0 STARLINK-6036,1 56800U 23078AK  24199.61543306  .00000201  00000-0  24604-4 0  9995,2 56800  70.0002  57.5072 0003017 271.2982  88.7832 14.98321738 62794,6950.218,96.108,574.18,569.987,0.0
56800.0,STARLINK-6036,PAYLOAD,2024-07-17 19:34:37,14.9831937,0.0003001,70.0,57.0023,271.4305,88.651,2.9533e-06,-5.8e-07,0.0,0 STARLINK-6036,1 56800U 23078AK  24199.81571630 -.00000058  00000-0  29533-5 0  9996,2 56800  70.0000  57.0023 0003001 271.4305  88.6510 14.98319370 63081,6950.226,96.108,574.177,570.005,0.0
